IRIDIUM 7               
1 24793U 97020B   24237.89821362  .00000802  00000+0  27301-3 0  9995
2 24793  86.3955 301.0590 0002308  87.4133 272.7327 14.35373906429387
IRIDIUM 5               
1 24795U 97020D   24237.93115034  .00007652  00000+0  70845-3 0  9995
2 24795  86.3918 219.6788 0122651 117.4536 243.9225 14.88719679441296
IRIDIUM 4               
1 24796U 97020E   24237.93039287  .00000728  00000+0  24262-3 0  9990
2 24796  86.3945 298.1165 0002387  93.0682 267.0788 14.36300841429930
IRIDIUM 914             
1 24836U 97030A   24237.91540416  .00000973  00000+0  30161-3 0  9992
2 24836  86.3943 307.6096 0003878 104.5097 255.6533 14.40186947564470
IRIDIUM 16              
1 24841U 97030F   24237.78334062  .00001145  00000+0  37195-3 0  9997
2 24841  86.4076 329.8206 0001659  26.0566 334.0716 14.38079346424399
IRIDIUM 911             
1 24842U 97030G   24237.78393040  .00001470  00000+0  40035-3 0  9997
2 24842  86.4501 328.8858 0014517  14.6959 345.4663 14.46774179432213
IRIDIUM 17              
1 24870U 97034B   24237.86544276  .00001275  00000+0  42245-3 0  9998
2 24870  86.4009 359.3470 0000542 121.3199 238.8051 14.37171212421012
IRIDIUM 920             
1 24871U 97034C   24237.90538470  .00001089  00000+0  33345-3 0  9997
2 24871  86.4024 339.2601 0010874 350.0809  10.0174 14.40885139423901
